{
  "type": "FeatureCollection",
  "features": [
    {
      "type": "Feature",
      "properties": {
        "norad_id": 54741,
        "name": "GALAXY 35 (G-35)",
        "group": "intelsat",
        "lat": 0.011918388262831179,
        "lon": 51.60140929865269,
        "alt_km": 35792.739627696836,
        "timestamp": "2025-12-20T03:42:47.060152+00:00",
        "meta_object_name": "GALAXY 35 (G-35)",
        "meta_object_id": "2022-170A",
        "meta_epoch": "2025-12-19T19:40:07.614048",
        "meta_mean_motion": 1.00272267,
        "meta_eccentricity": 0.0002137,
        "meta_inclination": 0.0189,
        "meta_ra_of_asc_node": 59.6955,
        "meta_arg_of_pericenter": 213.5206,
        "meta_mean_anomaly": 17.3837,
        "meta_ephemeris_type": 0,
        "meta_classification_type": "U",
        "meta_norad_cat_id": 54741,
        "meta_element_set_no": 999,
        "meta_rev_at_epoch": 1109,
        "meta_bstar": 0,
        "meta_mean_motion_dot": -1.38e-06,
        "meta_mean_motion_ddot": 0,
        "tle_line1": "1 54741U 22170A   25353.81953257 -.00000138  00000+0  00000+0 0  9992",
        "tle_line2": "2 54741   0.0189  59.6955 0002137 213.5206  17.3837  1.00272267 11099"
      },
      "geometry": {
        "type": "Point",
        "coordinates": [
          51.60140929865269,
          0.011918388262831179
        ]
      }
    },
    {
      "type": "Feature",
      "properties": {
        "norad_id": 54742,
        "name": "GALAXY 36 (G-36)",
        "group": "intelsat",
        "lat": 0.0361763475163399,
        "lon": 55.670926497320416,
        "alt_km": 35786.044543932985,
        "timestamp": "2025-12-20T03:42:47.060163+00:00",
        "meta_object_name": "GALAXY 36 (G-36)",
        "meta_object_id": "2022-170B",
        "meta_epoch": "2025-12-19T11:26:17.745792",
        "meta_mean_motion": 1.00269448,
        "meta_eccentricity": 3.28e-05,
        "meta_inclination": 0.0154,
        "meta_ra_of_asc_node": 1.2484,
        "meta_arg_of_pericenter": 356.3227,
        "meta_mean_anomaly": 173.3219,
        "meta_ephemeris_type": 0,
        "meta_classification_type": "U",
        "meta_norad_cat_id": 54742,
        "meta_element_set_no": 999,
        "meta_rev_at_epoch": 1097,
        "meta_bstar": 0,
        "meta_mean_motion_dot": 0,
        "meta_mean_motion_ddot": 0,
        "tle_line1": "1 54742U 22170B   25353.47659428  .00000000  00000+0  00000+0 0  9995",
        "tle_line2": "2 54742   0.0154   1.2484 0000328 356.3227 173.3219  1.00269448 10971"
      },
      "geometry": {
        "type": "Point",
        "coordinates": [
          55.670926497320416,
          0.0361763475163399
        ]
      }
    },
    {
      "type": "Feature",
      "properties": {
        "norad_id": 57493,
        "name": "GALAXY 37 (G-37)",
        "group": "intelsat",
        "lat": 0.01865280896654976,
        "lon": 17.696751891731992,
        "alt_km": 35788.626643579264,
        "timestamp": "2025-12-20T03:42:47.060175+00:00",
        "meta_object_name": "GALAXY 37 (G-37)",
        "meta_object_id": "2023-112A",
        "meta_epoch": "2025-12-19T17:47:40.883424",
        "meta_mean_motion": 1.00270724,
        "meta_eccentricity": 0.0001918,
        "meta_inclination": 0.0159,
        "meta_ra_of_asc_node": 351.0446,
        "meta_arg_of_pericenter": 280.4073,
        "meta_mean_anomaly": 317.0522,
        "meta_ephemeris_type": 0,
        "meta_classification_type": "U",
        "meta_norad_cat_id": 57493,
        "meta_element_set_no": 999,
        "meta_rev_at_epoch": 874,
        "meta_bstar": 0,
        "meta_mean_motion_dot": 7.3e-07,
        "meta_mean_motion_ddot": 0,
        "tle_line1": "1 57493U 23112A   25353.74144541  .00000073  00000+0  00000+0 0  9993",
        "tle_line2": "2 57493   0.0159 351.0446 0001918 280.4073 317.0522  1.00270724  8743"
      },
      "geometry": {
        "type": "Point",
        "coordinates": [
          17.696751891731992,
          0.01865280896654976
        ]
      }
    }
  ]
}